[{"OBJECT_NAME":"TECHNOSAT","OBJECT_ID":"2017-042E","EPOCH":"2026-03-09T21:27:07.546176","MEAN_MOTION":15.04288119,"ECCENTRICITY":0.00196291,"INCLINATION":97.4156,"RA_OF_ASC_NODE":230.4429,"ARG_OF_PERICENTER":75.0719,"MEAN_ANOMALY":285.2679,"EPHEMERIS_TYPE":0,"CLASSIFICATION_TYPE":"U","NORAD_CAT_ID":42829,"ELEMENT_SET_NO":999,"REV_AT_EPOCH":47177,"BSTAR":0.00032015047,"MEAN_MOTION_DOT":4.417e-5,"MEAN_MOTION_DDOT":0},{"OBJECT_NAME":"STARLINK-4427","OBJECT_ID":"2022-084X","EPOCH":"2026-03-09T21:22:01.322976","MEAN_MOTION":15.01261199,"ECCENTRICITY":0.00019367,"INCLINATION":97.603,"RA_OF_ASC_NODE":130.3993,"ARG_OF_PERICENTER":89.8126,"MEAN_ANOMALY":270.332,"EPHEMERIS_TYPE":0,"CLASSIFICATION_TYPE":"U","NORAD_CAT_ID":53210,"ELEMENT_SET_NO":999,"REV_AT_EPOCH":19988,"BSTAR":4.888818e-6,"MEAN_MOTION_DOT":5.0e-8,"MEAN_MOTION_DDOT":0}]
